start=new Date('2022-12-02T00:00:00.000Z').valueOf();
sats=[{"BSTAR":"0.00011222000000","TIME_SYSTEM":"UTC","REF_FRAME":"TEME","MEAN_MOTION_DOT":"0.00001391","DECAY_DATE":null,"EPHEMERIS_TYPE":"0","TLE_LINE2":"2 47761  53.0540 172.4139 0001209  84.8259 275.2868 15.06401269 97119","NORAD_CAT_ID":"47761","EPOCH":"2022-12-01T12:43:28.823808","SITE":"AFETR","ARG_OF_PERICENTER":"84.8259","PERIAPSIS":"546.372","FILE":"3677751","OBJECT_NAME":"STARLINK-2179","PERIOD":"95.592","REV_AT_EPOCH":"9711","CLASSIFICATION_TYPE":"U","INCLINATION":"53.0540","MEAN_ELEMENT_THEORY":"SGP4","SEMIMAJOR_AXIS":"6925.345","MEAN_MOTION_DDOT":"0.0000000000000","COUNTRY_CODE":"US","ELEMENT_SET_NO":"999","RCS_SIZE":"LARGE","TLE_LINE1":"1 47761U 21017AR  22335.53019472  .00001391  00000-0  11222-3 0  9997","MEAN_ANOMALY":"275.2868","MEAN_MOTION":"15.06401269","OBJECT_TYPE":"PAYLOAD","OBJECT_ID":"2021-017AR","ECCENTRICITY":"0.00012090","CENTER_NAME":"EARTH","RA_OF_ASC_NODE":"172.4139","APOAPSIS":"548.047","LAUNCH_DATE":"2021-03-04","GP_ID":"219275672"},{"INCLINATION":"53.0536","REV_AT_EPOCH":"9757","FILE":"3678231","PERIOD":"95.592","OBJECT_NAME":"STARLINK-2180","CLASSIFICATION_TYPE":"U","SITE":"AFETR","ARG_OF_PERICENTER":"48.2548","PERIAPSIS":"545.547","TLE_LINE2":"2 47762  53.0536 186.7182 0002398  48.2548 311.8645 15.06401863 97576","EPOCH":"2022-12-01T16:32:22.096032","NORAD_CAT_ID":"47762","MEAN_MOTION_DOT":"0.00001638","EPHEMERIS_TYPE":"0","DECAY_DATE":null,"TIME_SYSTEM":"UTC","REF_FRAME":"TEME","BSTAR":"0.00012886000000","GP_ID":"219304469","CENTER_NAME":"EARTH","ECCENTRICITY":"0.00023980","APOAPSIS":"548.869","RA_OF_ASC_NODE":"186.7182","LAUNCH_DATE":"2021-03-04","OBJECT_TYPE":"PAYLOAD","OBJECT_ID":"2021-017AS","MEAN_MOTION":"15.06401863","MEAN_ANOMALY":"311.8645","RCS_SIZE":"LARGE","TLE_LINE1":"1 47762U 21017AS  22335.68914463  .00001638  00000-0  12886-3 0  9999","MEAN_MOTION_DDOT":"0.0000000000000","COUNTRY_CODE":"US","ELEMENT_SET_NO":"999","SEMIMAJOR_AXIS":"6925.343","MEAN_ELEMENT_THEORY":"SGP4"},{"REV_AT_EPOCH":"9771","FILE":"3678231","PERIOD":"95.592","OBJECT_NAME":"STARLINK-2181","CLASSIFICATION_TYPE":"U","INCLINATION":"53.0521","TLE_LINE2":"2 47763  53.0521 176.0298 0002013  48.4982 311.6180 15.06407796 97718","NORAD_CAT_ID":"47763","EPOCH":"2022-12-01T20:06:01.385856","SITE":"AFETR","PERIAPSIS":"545.796","ARG_OF_PERICENTER":"48.4982","TIME_SYSTEM":"UTC","REF_FRAME":"TEME","MEAN_MOTION_DOT":"0.00000662","EPHEMERIS_TYPE":"0","DECAY_DATE":null,"BSTAR":"0.00006332500000","CENTER_NAME":"EARTH","ECCENTRICITY":"0.00020130","APOAPSIS":"548.584","RA_OF_ASC_NODE":"176.0298","LAUNCH_DATE":"2021-03-04","GP_ID":"219303724","MEAN_ANOMALY":"311.6180","MEAN_MOTION":"15.06407796","OBJECT_TYPE":"PAYLOAD","OBJECT_ID":"2021-017AT","MEAN_MOTION_DDOT":"0.0000000000000","COUNTRY_CODE":"US","ELEMENT_SET_NO":"999","RCS_SIZE":"LARGE","TLE_LINE1":"1 47763U 21017AT  22335.83751604  .00000662  00000-0  63325-4 0  9994","MEAN_ELEMENT_THEORY":"SGP4","SEMIMAJOR_AXIS":"6925.325"},{"EPHEMERIS_TYPE":"0","DECAY_DATE":null,"MEAN_MOTION_DOT":"-0.00000124","REF_FRAME":"TEME","TIME_SYSTEM":"UTC","BSTAR":"0.00001059800000","INCLINATION":"53.0533","CLASSIFICATION_TYPE":"U","FILE":"3677495","PERIOD":"95.593","OBJECT_NAME":"STARLINK-2182","REV_AT_EPOCH":"9750","PERIAPSIS":"546.045","ARG_OF_PERICENTER":"63.9455","SITE":"AFETR","EPOCH":"2022-12-01T00:15:44.738208","NORAD_CAT_ID":"47764","TLE_LINE2":"2 47764  53.0533 189.7443 0001714  63.9455 296.1711 15.06394011 97508","TLE_LINE1":"1 47764U 21017AU  22335.01093447 -.00000124  00000-0  10598-4 0  9997","RCS_SIZE":"LARGE","ELEMENT_SET_NO":"999","MEAN_MOTION_DDOT":"0.0000000000000","COUNTRY_CODE":"US","SEMIMAJOR_AXIS":"6925.367","MEAN_ELEMENT_THEORY":"SGP4","GP_ID":"219266426","LAUNCH_DATE":"2021-03-04","APOAPSIS":"548.419","RA_OF_ASC_NODE":"189.7443","CENTER_NAME":"EARTH","ECCENTRICITY":"0.00017140","OBJECT_ID":"2021-017AU","OBJECT_TYPE":"PAYLOAD","MEAN_MOTION":"15.06394011","MEAN_ANOMALY":"296.1711"},{"INCLINATION":"53.0551","CLASSIFICATION_TYPE":"U","PERIOD":"95.591","FILE":"3678231","REV_AT_EPOCH":"9754","OBJECT_NAME":"STARLINK-2184","SITE":"AFETR","PERIAPSIS":"545.993","ARG_OF_PERICENTER":"40.6593","TLE_LINE2":"2 47766  53.0551 186.6819 0001694  40.6593 319.4523 15.06415509 97545","NORAD_CAT_ID":"47766","EPOCH":"2022-12-01T16:36:17.278560","MEAN_MOTION_DOT":"0.00002940","EPHEMERIS_TYPE":"0","DECAY_DATE":null,"REF_FRAME":"TEME","TIME_SYSTEM":"UTC","BSTAR":"0.00021607000000","GP_ID":"219304723","CENTER_NAME":"EARTH","ECCENTRICITY":"0.00016940","LAUNCH_DATE":"2021-03-04","APOAPSIS":"548.339","RA_OF_ASC_NODE":"186.6819","OBJECT_ID":"2021-017AW","OBJECT_TYPE":"PAYLOAD","MEAN_ANOMALY":"319.4523","MEAN_MOTION":"15.06415509","RCS_SIZE":"LARGE","TLE_LINE1":"1 47766U 21017AW  22335.69186665  .00002940  00000-0  21607-3 0  9997","ELEMENT_SET_NO":"999","COUNTRY_CODE":"US","MEAN_MOTION_DDOT":"0.0000000000000","SEMIMAJOR_AXIS":"6925.301","MEAN_ELEMENT_THEORY":"SGP4"},{"OBJECT_ID":"2021-017AX","OBJECT_TYPE":"PAYLOAD","MEAN_MOTION":"15.06396032","MEAN_ANOMALY":"291.2886","GP_ID":"219304969","LAUNCH_DATE":"2021-03-04","RA_OF_ASC_NODE":"171.8717","APOAPSIS":"548.353","ECCENTRICITY":"0.00016280","CENTER_NAME":"EARTH","SEMIMAJOR_AXIS":"6925.361","MEAN_ELEMENT_THEORY":"SGP4","TLE_LINE1":"1 47767U 21017AX  22335.65182931 -.00000800  00000-0 -34794-4 0  9993","RCS_SIZE":"LARGE","ELEMENT_SET_NO":"999","COUNTRY_CODE":"US","MEAN_MOTION_DDOT":"0.0000000000000","ARG_OF_PERICENTER":"68.8277","PERIAPSIS":"546.098","SITE":"AFETR","NORAD_CAT_ID":"47767","EPOCH":"2022-12-01T15:38:38.052384","TLE_LINE2":"2 47767  53.0546 171.8717 0001628  68.8277 291.2886 15.06396032 97819","INCLINATION":"53.0546","CLASSIFICATION_TYPE":"U","FILE":"3678231","PERIOD":"95.592","OBJECT_NAME":"STARLINK-2185","REV_AT_EPOCH":"9781","BSTAR":"-0.00003479400000","DECAY_DATE":null,"EPHEMERIS_TYPE":"0","MEAN_MOTION_DOT":"-0.00000800","REF_FRAME":"TEME","TIME_SYSTEM":"UTC"},{"GP_ID":"219265675","RA_OF_ASC_NODE":"188.8687","APOAPSIS":"548.508","LAUNCH_DATE":"2021-03-04","CENTER_NAME":"EARTH","ECCENTRICITY":"0.00018410","OBJECT_TYPE":"PAYLOAD","OBJECT_ID":"2021-017AY","MEAN_ANOMALY":"302.9507","MEAN_MOTION":"15.06393656","TLE_LINE1":"1 47768U 21017AY  22335.29479794  .00000894  00000-0  78928-4 0  9998","RCS_SIZE":"LARGE","COUNTRY_CODE":"US","MEAN_MOTION_DDOT":"0.0000000000000","ELEMENT_SET_NO":"999","SEMIMAJOR_AXIS":"6925.368","MEAN_ELEMENT_THEORY":"SGP4","INCLINATION":"53.0539","FILE":"3677495","PERIOD":"95.593","OBJECT_NAME":"STARLINK-2189","REV_AT_EPOCH":"9751","CLASSIFICATION_TYPE":"U","PERIAPSIS":"545.958","ARG_OF_PERICENTER":"57.1659","SITE":"AFETR","NORAD_CAT_ID":"47768","EPOCH":"2022-12-01T07:04:30.542016","TLE_LINE2":"2 47768  53.0539 188.8687 0001841  57.1659 302.9507 15.06393656 97514","EPHEMERIS_TYPE":"0","DECAY_DATE":null,"MEAN_MOTION_DOT":"0.00000894","TIME_SYSTEM":"UTC","REF_FRAME":"TEME","BSTAR":"0.00007892800000"},{"TIME_SYSTEM":"UTC","REF_FRAME":"TEME","MEAN_MOTION_DOT":"-0.00000370","EPHEMERIS_TYPE":"0","DECAY_DATE":null,"BSTAR":"-0.00000590160000","FILE":"3678231","PERIOD":"95.592","REV_AT_EPOCH":"9810","OBJECT_NAME":"STARLINK-2192","CLASSIFICATION_TYPE":"U","INCLINATION":"53.0539","TLE_LINE2":"2 47769  53.0539 151.3515 0001941  66.2735 293.8458 15.06394534 98102","EPOCH":"2022-12-01T18:25:49.203840","NORAD_CAT_ID":"47769","SITE":"AFETR","PERIAPSIS":"545.886","ARG_OF_PERICENTER":"66.2735","COUNTRY_CODE":"US","MEAN_MOTION_DDOT":"0.0000000000000","ELEMENT_SET_NO":"999","RCS_SIZE":"LARGE","TLE_LINE1":"1 47769U 21017AZ  22335.76793060 -.00000370  00000-0 -59016-5 0  9995","MEAN_ELEMENT_THEORY":"SGP4","SEMIMAJOR_AXIS":"6925.365","CENTER_NAME":"EARTH","ECCENTRICITY":"0.00019410","APOAPSIS":"548.575","RA_OF_ASC_NODE":"151.3515","LAUNCH_DATE":"2021-03-04","GP_ID":"219303473","MEAN_ANOMALY":"293.8458","MEAN_MOTION":"15.06394534","OBJECT_TYPE":"PAYLOAD","OBJECT_ID":"2021-017AZ"},{"MEAN_MOTION_DOT":"0.00000675","DECAY_DATE":null,"EPHEMERIS_TYPE":"0","TIME_SYSTEM":"UTC","REF_FRAME":"TEME","BSTAR":"0.00006423100000","INCLINATION":"53.0556","FILE":"3678231","PERIOD":"95.593","REV_AT_EPOCH":"9786","OBJECT_NAME":"STARLINK-2193","CLASSIFICATION_TYPE":"U","SITE":"AFETR","ARG_OF_PERICENTER":"69.3353","PERIAPSIS":"545.837","TLE_LINE2":"2 47770  53.0556 166.5904 0002015  69.3353 290.7852 15.06393973 97868","NORAD_CAT_ID":"47770","EPOCH":"2022-12-01T17:01:34.155840","RCS_SIZE":"LARGE","TLE_LINE1":"1 47770U 21017BA  22335.70942310  .00000675  00000-0  64231-4 0  9995","MEAN_MOTION_DDOT":"0.0000000000000","COUNTRY_CODE":"US","ELEMENT_SET_NO":"999","SEMIMAJOR_AXIS":"6925.367","MEAN_ELEMENT_THEORY":"SGP4","GP_ID":"219304224","CENTER_NAME":"EARTH","ECCENTRICITY":"0.00020150","APOAPSIS":"548.627","RA_OF_ASC_NODE":"166.5904","LAUNCH_DATE":"2021-03-04","OBJECT_TYPE":"PAYLOAD","OBJECT_ID":"2021-017BA","MEAN_MOTION":"15.06393973","MEAN_ANOMALY":"290.7852"},{"TLE_LINE2":"2 47771  53.0535 166.8598 0001776  64.5338 295.5835 15.06387309 97861","NORAD_CAT_ID":"47771","EPOCH":"2022-12-01T15:41:58.272288","SITE":"AFETR","PERIAPSIS":"546.023","ARG_OF_PERICENTER":"64.5338","REV_AT_EPOCH":"9786","FILE":"3678231","PERIOD":"95.593","OBJECT_NAME":"STARLINK-2194","CLASSIFICATION_TYPE":"U","INCLINATION":"53.0535","BSTAR":"-0.00004031500000","TIME_SYSTEM":"UTC","REF_FRAME":"TEME","MEAN_MOTION_DOT":"-0.00000882","EPHEMERIS_TYPE":"0","DECAY_DATE":null,"MEAN_ANOMALY":"295.5835","MEAN_MOTION":"15.06387309","OBJECT_TYPE":"PAYLOAD","OBJECT_ID":"2021-017BB","CENTER_NAME":"EARTH","ECCENTRICITY":"0.00017760","APOAPSIS":"548.482","RA_OF_ASC_NODE":"166.8598","LAUNCH_DATE":"2021-03-04","GP_ID":"219304470","MEAN_ELEMENT_THEORY":"SGP4","SEMIMAJOR_AXIS":"6925.387","MEAN_MOTION_DDOT":"0.0000000000000","COUNTRY_CODE":"US","ELEMENT_SET_NO":"999","RCS_SIZE":"LARGE","TLE_LINE1":"1 47771U 21017BB  22335.65414667 -.00000882  00000-0 -40315-4 0  9998"}];
